[{"spaceTrack":{"CCSDS_OMM_VERS":"2.0","COMMENT":"GENERATED VIA SPACE-TRACK.ORG API","CREATION_DATE":"2021-05-12T14:46:11","ORIGINATOR":"18 SPCS","OBJECT_NAME":"STARLINK-1952","OBJECT_ID":"2021-005A","CENTER_NAME":"EARTH","REF_FRAME":"TEME","TIME_SYSTEM":"UTC","MEAN_ELEMENT_THEORY":"SGP4","EPOCH":"2021-05-12T14:00:01.000224","MEAN_MOTION":15.06390012,"ECCENTRICITY":0.0002307,"INCLINATION":53.0558,"RA_OF_ASC_NODE":52.0253,"ARG_OF_PERICENTER":78.8491,"MEAN_ANOMALY":312.2702,"EPHEMERIS_TYPE":0,"CLASSIFICATION_TYPE":"U","NORAD_CAT_ID":47349,"ELEMENT_SET_NO":999,"REV_AT_EPOCH":1812,"BSTAR":0.0018965,"MEAN_MOTION_DOT":0.00028073,"MEAN_MOTION_DDOT":0,"SEMIMAJOR_AXIS":6925.379,"PERIOD":95.593,"APOAPSIS":548.842,"PERIAPSIS":545.646,"OBJECT_TYPE":"PAYLOAD","RCS_SIZE":"LARGE","COUNTRY_CODE":"US","LAUNCH_DATE":"2021-01-20","SITE":"AFETR","DECAY_DATE":null,"DECAYED":0,"FILE":3035518,"GP_ID":177114096,"TLE_LINE0":"0 STARLINK-1952","TLE_LINE1":"1 47349U 21005A   21132.58334491  .00028073  00000-0  18965-2 0  9992","TLE_LINE2":"2 47349  53.0558  52.0253 0002307  78.8491 312.2702 15.06390012 18127"},"version":"v1.0","launch":"5fbfecce54ceb10a5664c80a","longitude":-103.71847812375991,"latitude":-6.76019315050636,"height_km":549.1454126791405,"velocity_kms":7.588157737842684,"id":"60106f1fe900d60006e32caf"},{"spaceTrack":{"CCSDS_OMM_VERS":"2.0","COMMENT":"GENERATED VIA SPACE-TRACK.ORG API","CREATION_DATE":"2021-05-12T04:44:40","ORIGINATOR":"18 SPCS","OBJECT_NAME":"STARLINK-2119","OBJECT_ID":"2021-005BA","CENTER_NAME":"EARTH","REF_FRAME":"TEME","TIME_SYSTEM":"UTC","MEAN_ELEMENT_THEORY":"SGP4","EPOCH":"2021-05-11T22:00:00.999936","MEAN_MOTION":15.06418875,"ECCENTRICITY":0.0002027,"INCLINATION":53.0574,"RA_OF_ASC_NODE":54.9989,"ARG_OF_PERICENTER":83.5665,"MEAN_ANOMALY":330.1036,"EPHEMERIS_TYPE":0,"CLASSIFICATION_TYPE":"U","NORAD_CAT_ID":47397,"ELEMENT_SET_NO":999,"REV_AT_EPOCH":181,"BSTAR":-0.0020646,"MEAN_MOTION_DOT":-0.00030917,"MEAN_MOTION_DDOT":0,"SEMIMAJOR_AXIS":6925.291,"PERIOD":95.591,"APOAPSIS":548.559,"PERIAPSIS":545.752,"OBJECT_TYPE":"PAYLOAD","RCS_SIZE":"LARGE","COUNTRY_CODE":"US","LAUNCH_DATE":"2021-01-20","SITE":"AFETR","DECAY_DATE":null,"DECAYED":0,"FILE":3035157,"GP_ID":177104735,"TLE_LINE0":"0 STARLINK-2119","TLE_LINE1":"1 47397U 21005BA  21131.91667824 -.00030917  00000-0 -20646-2 0  9991","TLE_LINE2":"2 47397  53.0574  54.9989 0002027  83.5665 330.1036 15.06418875  1815"},"version":"v1.0","launch":"5fbfecce54ceb10a5664c80a","longitude":-78.47189011611816,"latitude":24.757957445392453,"height_km":547.4486501687106,"velocity_kms":7.592167271079708,"id":"60106f1fe900d60006e32cb4"},{"spaceTrack":{"CCSDS_OMM_VERS":"2.0","COMMENT":"GENERATED VIA SPACE-TRACK.ORG API","CREATION_DATE":"2021-05-12T14:46:11","ORIGINATOR":"18 SPCS","OBJECT_NAME":"STARLINK-2115","OBJECT_ID":"2021-005AX","CENTER_NAME":"EARTH","REF_FRAME":"TEME","TIME_SYSTEM":"UTC","MEAN_ELEMENT_THEORY":"SGP4","EPOCH":"2021-05-12T14:00:01.000224","MEAN_MOTION":15.62321136,"ECCENTRICITY":0.0004257,"INCLINATION":53.0556,"RA_OF_ASC_NODE":21.9546,"ARG_OF_PERICENTER":2.6437,"MEAN_ANOMALY":349.5472,"EPHEMERIS_TYPE":0,"CLASSIFICATION_TYPE":"U","NORAD_CAT_ID":47394,"ELEMENT_SET_NO":999,"REV_AT_EPOCH":1848,"BSTAR":0.0070977,"MEAN_MOTION_DOT":0.00696355,"MEAN_MOTION_DDOT":0,"SEMIMAJOR_AXIS":6759.091,"PERIOD":92.171,"APOAPSIS":383.833,"PERIAPSIS":378.079,"OBJECT_TYPE":"PAYLOAD","RCS_SIZE":"LARGE","COUNTRY_CODE":"US","LAUNCH_DATE":"2021-01-20","SITE":"AFETR","DECAY_DATE":null,"DECAYED":0,"FILE":3035526,"GP_ID":177113730,"TLE_LINE0":"0 STARLINK-2115","TLE_LINE1":"1 47394U 21005AX  21132.58334491  .00696355  00000-0  70977-2 0  9997","TLE_LINE2":"2 47394  53.0556  21.9546 0004257   2.6437 349.5472 15.62321136 18485"},"version":"v1.0","launch":"5fbfecce54ceb10a5664c80a","longitude":-133.9750697208953,"latitude":-6.905564252585531,"height_km":379.48759464536033,"velocity_kms":7.684509345057461,"id":"60106f1fe900d60006e32cb3"},{"spaceTrack":{"CCSDS_OMM_VERS":"2.0","COMMENT":"GENERATED VIA SPACE-TRACK.ORG API","CREATION_DATE":"2021-05-12T14:46:11","ORIGINATOR":"18 SPCS","OBJECT_NAME":"STARLINK-2109","OBJECT_ID":"2021-005AR","CENTER_NAME":"EARTH","REF_FRAME":"TEME","TIME_SYSTEM":"UTC","MEAN_ELEMENT_THEORY":"SGP4","EPOCH":"2021-05-12T12:00:00.999648","MEAN_MOTION":15.06422685,"ECCENTRICITY":0.0001925,"INCLINATION":53.0488,"RA_OF_ASC_NODE":52.4068,"ARG_OF_PERICENTER":70.8132,"MEAN_ANOMALY":288.1485,"EPHEMERIS_TYPE":0,"CLASSIFICATION_TYPE":"U","NORAD_CAT_ID":47388,"ELEMENT_SET_NO":999,"REV_AT_EPOCH":1839,"BSTAR":-0.0073735,"MEAN_MOTION_DOT":-0.00108519,"MEAN_MOTION_DDOT":0,"SEMIMAJOR_AXIS":6925.279,"PERIOD":95.591,"APOAPSIS":548.477,"PERIAPSIS":545.811,"OBJECT_TYPE":"PAYLOAD","RCS_SIZE":"LARGE","COUNTRY_CODE":"US","LAUNCH_DATE":"2021-01-20","SITE":"AFETR","DECAY_DATE":null,"DECAYED":0,"FILE":3035524,"GP_ID":177114213,"TLE_LINE0":"0 STARLINK-2109","TLE_LINE1":"1 47388U 21005AR  21132.50001157 -.00108519  00000-0 -73735-2 0  9999","TLE_LINE2":"2 47388  53.0488  52.4068 0001925  70.8132 288.1485 15.06422685 18399"},"version":"v1.0","launch":"5fbfecce54ceb10a5664c80a","longitude":-61.397880819005145,"latitude":38.96145937621447,"height_km":549.4413805098702,"velocity_kms":7.592840644606387,"id":"60106f1fe900d60006e32cb2"},{"spaceTrack":{"CCSDS_OMM_VERS":"2.0","COMMENT":"GENERATED VIA SPACE-TRACK.ORG API","CREATION_DATE":"2021-05-12T04:44:40","ORIGINATOR":"18 SPCS","OBJECT_NAME":"STARLINK-2100","OBJECT_ID":"2021-005AH","CENTER_NAME":"EARTH","REF_FRAME":"TEME","TIME_SYSTEM":"UTC","MEAN_ELEMENT_THEORY":"SGP4","EPOCH":"2021-05-11T22:00:00.999936","MEAN_MOTION":15.37513814,"ECCENTRICITY":0.000125,"INCLINATION":53.0563,"RA_OF_ASC_NODE":26.3453,"ARG_OF_PERICENTER":67.5466,"MEAN_ANOMALY":349.562,"EPHEMERIS_TYPE":0,"CLASSIFICATION_TYPE":"U","NORAD_CAT_ID":47380,"ELEMENT_SET_NO":999,"REV_AT_EPOCH":182,"BSTAR":-0.03152,"MEAN_MOTION_DOT":-0.01079906,"MEAN_MOTION_DDOT":0,"SEMIMAJOR_AXIS":6831.601,"PERIOD":93.658,"APOAPSIS":454.32,"PERIAPSIS":452.612,"OBJECT_TYPE":"PAYLOAD","RCS_SIZE":"LARGE","COUNTRY_CODE":"US","LAUNCH_DATE":"2021-01-20","SITE":"AFETR","DECAY_DATE":null,"DECAYED":0,"FILE":3035157,"GP_ID":177105484,"TLE_LINE0":"0 STARLINK-2100","TLE_LINE1":"1 47380U 21005AH  21131.91667824 -.01079906  00000-0 -31520-1 0  9997","TLE_LINE2":"2 47380  53.0563  26.3453 0001250  67.5466 349.5620 15.37513814  1829"},"version":"v1.0","launch":"5fbfecce54ceb10a5664c80a","longitude":15.260811480634628,"latitude":38.98752738640264,"height_km":462.04246162636264,"velocity_kms":7.640926844710798,"id":"60106f1fe900d60006e32cb6"},{"spaceTrack":{"CCSDS_OMM_VERS":"2.0","COMMENT":"GENERATED VIA SPACE-TRACK.ORG API","CREATION_DATE":"2021-05-12T14:46:11","ORIGINATOR":"18 SPCS","OBJECT_NAME":"STARLINK-2117","OBJECT_ID":"2021-005AY","CENTER_NAME":"EARTH","REF_FRAME":"TEME","TIME_SYSTEM":"UTC","MEAN_ELEMENT_THEORY":"SGP4","EPOCH":"2021-05-12T14:00:01.000224","MEAN_MOTION":15.62313983,"ECCENTRICITY":0.0004284,"INCLINATION":53.0558,"RA_OF_ASC_NODE":21.9459,"ARG_OF_PERICENTER":3.2816,"MEAN_ANOMALY":351.4577,"EPHEMERIS_TYPE":0,"CLASSIFICATION_TYPE":"U","NORAD_CAT_ID":47395,"ELEMENT_SET_NO":999,"REV_AT_EPOCH":1787,"BSTAR":0.0071994,"MEAN_MOTION_DOT":0.00707094,"MEAN_MOTION_DDOT":0,"SEMIMAJOR_AXIS":6759.112,"PERIOD":92.171,"APOAPSIS":383.872,"PERIAPSIS":378.081,"OBJECT_TYPE":"PAYLOAD","RCS_SIZE":"LARGE","COUNTRY_CODE":"US","LAUNCH_DATE":"2021-01-20","SITE":"AFETR","DECAY_DATE":null,"DECAYED":0,"FILE":3035530,"GP_ID":177113748,"TLE_LINE0":"0 STARLINK-2117","TLE_LINE1":"1 47395U 21005AY  21132.58334491  .00707094  00000-0  71994-2 0  9991","TLE_LINE2":"2 47395  53.0558  21.9459 0004284   3.2816 351.4577 15.62313983 17870"},"version":"v1.0","launch":"5fbfecce54ceb10a5664c80a","longitude":-132.43645615294028,"latitude":-4.864642761796286,"height_km":379.0699685855152,"velocity_kms":7.684894739538099,"id":"60106f1fe900d60006e32cb9"},{"spaceTrack":{"CCSDS_OMM_VERS":"2.0","COMMENT":"GENERATED VIA SPACE-TRACK.ORG API","CREATION_DATE":"2021-05-12T14:46:11","ORIGINATOR":"18 SPCS","OBJECT_NAME":"STARLINK-2079","OBJECT_ID":"2021-005R","CENTER_NAME":"EARTH","REF_FRAME":"TEME","TIME_SYSTEM":"UTC","MEAN_ELEMENT_THEORY":"SGP4","EPOCH":"2021-05-12T12:00:00.999648","MEAN_MOTION":15.06386507,"ECCENTRICITY":0.0001841,"INCLINATION":53.0521,"RA_OF_ASC_NODE":52.3976,"ARG_OF_PERICENTER":74.4361,"MEAN_ANOMALY":304.5653,"EPHEMERIS_TYPE":0,"CLASSIFICATION_TYPE":"U","NORAD_CAT_ID":47364,"ELEMENT_SET_NO":999,"REV_AT_EPOCH":1743,"BSTAR":-0.0057354,"MEAN_MOTION_DOT":-0.00084671,"MEAN_MOTION_DDOT":0,"SEMIMAJOR_AXIS":6925.39,"PERIOD":95.593,"APOAPSIS":548.53,"PERIAPSIS":545.98,"OBJECT_TYPE":"PAYLOAD","RCS_SIZE":"LARGE","COUNTRY_CODE":"US","LAUNCH_DATE":"2021-01-20","SITE":"AFETR","DECAY_DATE":null,"DECAYED":0,"FILE":3035519,"GP_ID":177114116,"TLE_LINE0":"0 STARLINK-2079","TLE_LINE1":"1 47364U 21005R   21132.50001157 -.00084671  00000-0 -57354-2 0  9994","TLE_LINE2":"2 47364  53.0521  52.3976 0001841  74.4361 304.5653 15.06386507 17435"},"version":"v1.0","launch":"5fbfecce54ceb10a5664c80a","longitude":-37.54511280278773,"latitude":49.48467008666842,"height_km":551.8337002585322,"velocity_kms":7.592625567387332,"id":"60106f20e900d60006e32cbf"}]